NORAD_CAT_ID,OBJECT_NAME,OBJECT_TYPE,EPOCH,MEAN_MOTION,ECCENTRICITY,INCLINATION,RA_OF_ASC_NODE,ARG_OF_PERICENTER,MEAN_ANOMALY,BSTAR,MEAN_MOTION_DOT,MEAN_MOTION_DDOT,TLE_LINE0,TLE_LINE1,TLE_LINE2,SEMIMAJOR_AXIS,PERIOD,APOGEE,PERIGEE,DECAYED
53029.0,STARLINK-4143,PAYLOAD,2024-05-21 07:58:15,15.0883821,0.0001404,53.2167,145.1119,94.0588,266.0565,5.1926e-05,5.39e-06,0.0,0 STARLINK-4143,1 53029U 22076AV  24142.33211994  .00000539  00000-0  51926-4 0  9995,2 53029  53.2167 145.1119 0001404  94.0588 266.0565 15.08838210103886,6917.886,95.438,540.722,538.78,0.0
53029.0,STARLINK-4143,PAYLOAD,2024-05-22 04:38:15,15.08843008,0.0001375,53.2164,141.2465,94.7663,265.3486,7.7311e-05,9.43e-06,0.0,0 STARLINK-4143,1 53029U 22076AV  24143.19323538  .00000943  00000-0  77311-4 0  9993,2 53029  53.2164 141.2465 0001375  94.7663 265.3486 15.08843008104484,6917.871,95.437,540.687,538.785,0.0
53029.0,STARLINK-4143,PAYLOAD,2024-05-22 09:24:24,15.08844769,0.0001436,53.2164,140.3547,89.394,270.7217,9.6216e-05,1.244e-05,0.0,0 STARLINK-4143,1 53029U 22076AV  24143.39195375  .00001244  00000-0  96216-4 0  9991,2 53029  53.2164 140.3547 0001436  89.3940 270.7217 15.08844769104040,6917.866,95.437,540.724,538.737,0.0
53029.0,STARLINK-4143,PAYLOAD,2024-05-23 04:29:03,15.0883641,0.0001445,53.2166,136.7839,82.8853,277.2304,4.0722e-05,3.6e-06,0.0,0 STARLINK-4143,1 53029U 22076AV  24144.18684114  .00000360  00000-0  40722-4 0  9992,2 53029  53.2166 136.7839 0001445  82.8853 277.2304 15.08836410104634,6917.891,95.438,540.756,538.757,0.0
53029.0,STARLINK-4143,PAYLOAD,2024-05-23 06:04:26,15.08836962,0.0001466,53.2165,136.4867,81.9218,278.1941,4.4477e-05,4.2e-06,0.0,0 STARLINK-4143,1 53029U 22076AV  24144.25308080  .00000420  00000-0  44477-4 0  9993,2 53029  53.2165 136.4867 0001466  81.9218 278.1941 15.08836962104177,6917.89,95.438,540.769,538.741,0.0
53029.0,STARLINK-4143,PAYLOAD,2024-05-24 04:19:49,15.08844229,0.0001596,53.2167,132.3248,105.2387,254.8782,6.9542e-05,8.19e-06,0.0,0 STARLINK-4143,1 53029U 22076AV  24145.18043387  .00000819  00000-0  69542-4 0  9994,2 53029  53.2167 132.3248 0001596 105.2387 254.8782 15.08844229104784,6917.867,95.437,540.837,538.628,0.0
53029.0,STARLINK-4143,PAYLOAD,2024-05-24 09:05:58,15.08844889,0.0001598,53.2167,131.4326,105.2291,254.8878,7.2251e-05,8.62e-06,0.0,0 STARLINK-4143,1 53029U 22076AV  24145.37915283  .00000862  00000-0  72251-4 0  9997,2 53029  53.2167 131.4326 0001598 105.2291 254.8878 15.08844889104347,6917.865,95.437,540.836,538.625,0.0
53029.0,STARLINK-4143,PAYLOAD,2024-05-25 05:45:57,15.08870061,0.000142,53.2169,127.5671,104.3441,255.7709,0.00031909,4.798e-05,0.0,0 STARLINK-4143,1 53029U 22076AV  24146.24024840  .00004798  00000-0  31909-3 0  9990,2 53029  53.2169 127.5671 0001420 104.3441 255.7709 15.08870061104949,6917.789,95.436,540.636,538.671,0.0
53029.0,STARLINK-4143,PAYLOAD,2024-05-25 15:18:18,15.08833254,0.0001086,53.217,125.7845,104.873,255.2382,-1.4571e-05,-5.2e-06,0.0,0 STARLINK-4143,1 53029U 22076AV  24146.63771424 -.00000520  00000-0 -14571-4 0  9998,2 53029  53.2170 125.7845 0001086 104.8730 255.2382 15.08833254105001,6917.901,95.438,540.517,539.015,0.0
53029.0,STARLINK-4143,PAYLOAD,2024-05-26 04:01:24,15.08826239,0.0001604,53.2174,123.4041,99.5899,260.5274,-0.00012614,-2.294e-05,0.0,0 STARLINK-4143,1 53029U 22076AV  24147.16764541 -.00002294  00000-0 -12614-3 0  9994,2 53029  53.2174 123.4041 0001604  99.5899 260.5274 15.08826239105082,6917.922,95.438,540.897,538.678,0.0
53029.0,STARLINK-4143,PAYLOAD,2024-05-26 05:36:47,15.08828563,0.0001479,53.2169,123.1086,98.912,261.204,-0.00011592,-2.132e-05,0.0,0 STARLINK-4143,1 53029U 22076AV  24147.23388379 -.00002132  00000-0 -11592-3 0  9998,2 53029  53.2169 123.1086 0001479  98.9120 261.2040 15.08828563104622,6917.915,95.438,540.804,538.757,0.0
53029.0,STARLINK-4143,PAYLOAD,2024-05-26 21:30:38,15.08828181,0.0001529,53.2166,120.1336,104.6334,255.4827,-2.1102e-05,-6.24e-06,0.0,0 STARLINK-4143,1 53029U 22076AV  24147.89628454 -.00000624  00000-0 -21102-4 0  9994,2 53029  53.2166 120.1336 0001529 104.6334 255.4827 15.08828181105199,6917.917,95.438,540.839,538.724,0.0
53029.0,STARLINK-4143,PAYLOAD,2024-05-27 05:27:34,15.0884532,0.0001345,53.2171,118.6474,95.7518,264.3627,-0.0001008,-1.892e-05,0.0,0 STARLINK-4143,1 53029U 22076AV  24148.22747815 -.00001892  00000-0 -10080-3 0  9995,2 53029  53.2171 118.6474 0001345  95.7518 264.3627 15.08845320105247,6917.864,95.437,540.66,538.799,0.0
53029.0,STARLINK-4143,PAYLOAD,2024-05-27 07:02:57,15.08845274,0.0001349,53.217,118.3504,96.9606,263.154,-9.3187e-05,-1.771e-05,0.0,0 STARLINK-4143,1 53029U 22076AV  24148.29371733 -.00001771  00000-0 -93187-4 0  9990,2 53029  53.2170 118.3504 0001349  96.9606 263.1540 15.08845274104789,6917.864,95.437,540.662,538.796,0.0
53029.0,STARLINK-4143,PAYLOAD,2024-05-27 21:21:25,15.08825756,0.0001353,53.2163,115.6743,88.7486,271.3661,0.00012529,1.706e-05,0.0,0 STARLINK-4143,1 53029U 22076AV  24148.88988322  .00001706  00000-0  12529-3 0  9999,2 53029  53.2163 115.6743 0001353  88.7486 271.3661 15.08825756105347,6917.924,95.438,540.725,538.853,0.0
53029.0,STARLINK-4143,PAYLOAD,2024-05-28 05:18:21,15.08827959,0.0001401,53.2166,114.1869,88.2335,271.8818,0.0001384,1.915e-05,0.0,0 STARLINK-4143,1 53029U 22076AV  24149.22108541  .00001915  00000-0  13840-3 0  9994,2 53029  53.2166 114.1869 0001401  88.2335 271.8818 15.08827959104924,6917.917,95.438,540.751,538.813,0.0
53029.0,STARLINK-4143,PAYLOAD,2024-05-28 21:12:13,15.08837729,0.0001509,53.2173,111.2131,82.3003,277.8161,7.0963e-05,8.42e-06,0.0,0 STARLINK-4143,1 53029U 22076AV  24149.88348564  .00000842  00000-0  70963-4 0  9995,2 53029  53.2173 111.2131 0001509  82.3003 277.8161 15.08837729105023,6917.887,95.438,540.796,538.708,0.0
53029.0,STARLINK-4143,PAYLOAD,2024-05-29 05:09:08,15.0884257,0.000156,53.2176,109.7271,79.9672,280.1496,0.00011086,1.477e-05,0.0,0 STARLINK-4143,1 53029U 22076AV  24150.21468159  .00001477  00000-0  11086-3 0  9992,2 53029  53.2176 109.7271 0001560  79.9672 280.1496 15.08842570105549,6917.873,95.437,540.817,538.658,0.0
53029.0,STARLINK-4143,PAYLOAD,2024-05-29 21:03:00,15.08839831,0.0001595,53.2178,106.754,80.2735,279.8437,7.7959e-05,9.53e-06,0.0,0 STARLINK-4143,1 53029U 22076AV  24150.87708611  .00000953  00000-0  77959-4 0  9994,2 53029  53.2178 106.7540 0001595  80.2735 279.8437 15.08839831105647,6917.881,95.438,540.849,538.643,0.0
53029.0,STARLINK-4143,PAYLOAD,2024-05-30 06:35:18,15.08844119,0.0001527,53.2176,104.969,86.3562,273.7605,0.00010171,1.331e-05,0.0,0 STARLINK-4143,1 53029U 22076AV  24151.27452221  .00001331  00000-0  10171-3 0  9995,2 53029  53.2176 104.9690 0001527  86.3562 273.7605 15.08844119105231,6917.868,95.437,540.789,538.676,0.0
53029.0,STARLINK-4143,PAYLOAD,2024-05-31 03:15:19,15.08840927,0.0001584,53.2178,101.1052,84.247,275.8703,2.2436e-05,6.9e-07,0.0,0 STARLINK-4143,1 53029U 22076AV  24152.13564707  .00000069  00000-0  22436-4 0  9999,2 53029  53.2178 101.1052 0001584  84.2470 275.8703 15.08840927105833,6917.878,95.437,540.838,538.647,0.0
53029.0,STARLINK-4143,PAYLOAD,2024-05-31 06:26:06,15.08841987,0.0001592,53.2177,100.5071,91.9174,268.2,-2.9925e-06,-3.36e-06,0.0,0 STARLINK-4143,1 53029U 22076AV  24152.26812653 -.00000336  00000-0 -29925-5 0  9999,2 53029  53.2177 100.5071 0001592  91.9174 268.2000 15.08841987105384,6917.874,95.437,540.841,538.638,0.0
53029.0,STARLINK-4143,PAYLOAD,2024-05-31 20:44:34,15.08834107,0.0001625,53.2176,97.831,98.2191,261.8985,-9.7973e-06,-4.44e-06,0.0,0 STARLINK-4143,1 53029U 22076AV  24152.86429246 -.00000444  00000-0 -97973-5 0  9995,2 53029  53.2176  97.8310 0001625  98.2191 261.8985 15.08834107105942,6917.898,95.438,540.888,538.639,0.0
53029.0,STARLINK-4143,PAYLOAD,2024-06-01 12:38:25,15.08839483,0.0001455,53.218,94.8575,96.5471,263.5686,3.5998e-05,2.85e-06,0.0,0 STARLINK-4143,1 53029U 22076AV  24153.52668899  .00000285  00000-0  35998-4 0  9997,2 53029  53.2180  94.8575 0001455  96.5471 263.5686 15.08839483105578,6917.882,95.438,540.754,538.74,0.0
53029.0,STARLINK-4143,PAYLOAD,2024-06-02 12:29:13,15.0884147,0.0001302,53.218,90.4001,93.1275,266.9866,3.4024e-05,2.54e-06,0.0,0 STARLINK-4143,1 53029U 22076AV  24154.52028982  .00000254  00000-0  34024-4 0  9996,2 53029  53.2180  90.4001 0001302  93.1275 266.9866 15.08841470105723,6917.876,95.437,540.642,538.84,0.0
53029.0,STARLINK-4143,PAYLOAD,2024-06-02 20:26:09,15.08834676,0.0001318,53.2186,88.914,97.5712,262.543,4.4191e-05,4.15e-06,0.0,0 STARLINK-4143,1 53029U 22076AV  24154.85149579  .00000415  00000-0  44191-4 0  9993,2 53029  53.2186  88.9140 0001318  97.5712 262.5430 15.08834676106243,6917.897,95.438,540.673,538.85,0.0
53029.0,STARLINK-4143,PAYLOAD,2024-06-03 12:20:01,15.08831397,0.0001648,53.2187,85.9379,87.069,273.0491,-1.6605e-05,-5.52e-06,0.0,0 STARLINK-4143,1 53029U 22076AV  24155.51390305 -.00000552  00000-0 -16605-4 0  9995,2 53029  53.2187  85.9379 0001648  87.0690 273.0491 15.08831397105879,6917.907,95.438,540.912,538.632,0.0
53029.0,STARLINK-4143,PAYLOAD,2024-06-04 04:13:52,15.08841818,0.0001436,53.2171,82.9636,79.8949,280.2205,2.6646e-05,1.36e-06,0.0,0 STARLINK-4143,1 53029U 22076AV  24156.17629707  .00000136  00000-0  26646-4 0  9991,2 53029  53.2171  82.9636 0001436  79.8949 280.2205 15.08841818106442,6917.875,95.437,540.733,538.746,0.0
53029.0,STARLINK-4143,PAYLOAD,2024-06-04 12:10:47,15.08846107,0.000146,53.2177,81.477,82.1547,277.9611,8.6729e-05,1.093e-05,0.0,0 STARLINK-4143,1 53029U 22076AV  24156.50749283  .00001093  00000-0  86729-4 0  9991,2 53029  53.2177  81.4770 0001460  82.1547 277.9611 15.08846107106023,6917.862,95.437,540.737,538.717,0.0
53029.0,STARLINK-4143,PAYLOAD,2024-06-05 04:04:38,15.08853666,0.0001411,53.2189,78.5007,81.8751,278.2401,0.00019848,2.873e-05,0.0,0 STARLINK-4143,1 53029U 22076AV  24157.16988471  .00002873  00000-0  19848-3 0  9992,2 53029  53.2189  78.5007 0001411  81.8751 278.2401 15.08853666106596,6917.839,95.437,540.68,538.728,0.0
